{"type": "FeatureCollection", "features": [ {"type": "Feature", "properties": {"norad_id": 32289, "name": "YAOGAN-3", "group": "resource", "lat": 64.18362739843899, "lon": 0.7052647439856397, "alt_km": 591.1207988472097, "timestamp": "2025-12-16T15:45:50.670191+00:00", "meta": {"OBJECT_NAME": "YAOGAN-3", "OBJECT_ID": "2007-055A", "EPOCH": "2025-12-15T23:21:12.132576", "MEAN_MOTION": 14.89877126, "ECCENTRICITY": 0.00013616, "INCLINATION": 97.8371, "RA_OF_ASC_NODE": 16.5693, "ARG_OF_PERICENTER": 77.1788, "MEAN_ANOMALY": 282.9581, "EPHEMERIS_TYPE": 0, "CLASSIFICATION_TYPE": "U", "NORAD_CAT_ID": 32289, "ELEMENT_SET_NO": 999, "REV_AT_EPOCH": 97857, "BSTAR": 0.00024221012, "MEAN_MOTION_DOT": 2.273e-05, "MEAN_MOTION_DDOT": 0}, "tle": {"line1": "1 32289U 07055A   25349.97305709  .00002273  00000+0  24221-3 0  9991", "line2": "2 32289  97.8371  16.5693 0001361  77.1788 282.9581 14.89877126978574"}}, "geometry": {"type": "Point", "coordinates": [0.7052647439856397, 64.18362739843899]}}, {"type": "Feature", "properties": {"norad_id": 32376, "name": "COSMO-SKYMED 2", "group": "resource", "lat": -55.116863043223, "lon": -19.53761112330395, "alt_km": 630.4806838292861, "timestamp": "2025-12-16T15:45:50.670212+00:00", "meta": {"OBJECT_NAME": "COSMO-SKYMED 2", "OBJECT_ID": "2007-059A", "EPOCH": "2025-12-16T00:07:15.369600", "MEAN_MOTION": 14.82146566, "ECCENTRICITY": 0.00013839, "INCLINATION": 97.8804, "RA_OF_ASC_NODE": 171.2798, "ARG_OF_PERICENTER": 83.3146, "MEAN_ANOMALY": 276.8224, "EPHEMERIS_TYPE": 0, "CLASSIFICATION_TYPE": "U", "NORAD_CAT_ID": 32376, "ELEMENT_SET_NO": 999, "REV_AT_EPOCH": 97486, "BSTAR": 7.6250527e-05, "MEAN_MOTION_DOT": 5.55e-06, "MEAN_MOTION_DDOT": 0}, "tle": {"line1": "1 32376U 07059A   25350.00503900  .00000555  00000+0  76251-4 0  9993", "line2": "2 32376  97.8804 171.2798 0001383  83.3146 276.8224 14.82146566974862"}}, "geometry": {"type": "Point", "coordinates": [-19.53761112330395, -55.116863043223]}}, {"type": "Feature", "properties": {"norad_id": 32382, "name": "RADARSAT-2", "group": "resource", "lat": 9.49393429119698, "lon": 176.63705945180078, "alt_km": 793.3507690050064, "timestamp": "2025-12-16T15:45:50.670232+00:00", "meta": {"OBJECT_NAME": "RADARSAT-2", "OBJECT_ID": "2007-061A", "EPOCH": "2025-12-15T23:51:24.212736", "MEAN_MOTION": 14.29983294, "ECCENTRICITY": 0.00011201, "INCLINATION": 98.5801, "RA_OF_ASC_NODE": 354.5371, "ARG_OF_PERICENTER": 85.7698, "MEAN_ANOMALY": 274.3613, "EPHEMERIS_TYPE": 0, "CLASSIFICATION_TYPE": "U", "NORAD_CAT_ID": 32382, "ELEMENT_SET_NO": 999, "REV_AT_EPOCH": 93977, "BSTAR": 9.3487331e-05, "MEAN_MOTION_DOT": 1.97e-06, "MEAN_MOTION_DDOT": 0}, "tle": {"line1": "1 32382U 07061A   25349.99403024  .00000197  00000+0  93487-4 0  9997", "line2": "2 32382  98.5801 354.5371 0001120  85.7698 274.3613 14.29983294939778"}}, "geometry": {"type": "Point", "coordinates": [176.63705945180078, 9.49393429119698]}}, {"type": "Feature", "properties": {"norad_id": 32783, "name": "CARTOSAT-2A", "group": "resource", "lat": -29.610502075171148, "lon": 44.82218471471029, "alt_km": 631.0302122739749, "timestamp": "2025-12-16T15:45:50.670252+00:00", "meta": {"OBJECT_NAME": "CARTOSAT-2A", "OBJECT_ID": "2008-021A", "EPOCH": "2025-12-15T23:39:39.932640", "MEAN_MOTION": 14.78945532, "ECCENTRICITY": 0.00116405, "INCLINATION": 97.7932, "RA_OF_ASC_NODE": 39.7081, "ARG_OF_PERICENTER": 354.2768, "MEAN_ANOMALY": 5.8309, "EPHEMERIS_TYPE": 0, "CLASSIFICATION_TYPE": "U", "NORAD_CAT_ID": 32783, "ELEMENT_SET_NO": 999, "REV_AT_EPOCH": 95172, "BSTAR": 0.00016090633, "MEAN_MOTION_DOT": 1.138e-05, "MEAN_MOTION_DDOT": 0}, "tle": {"line1": "1 32783U 08021A   25349.98587885  .00001138  00000+0  16091-3 0  9997", "line2": "2 32783  97.7932  39.7081 0011640 354.2768   5.8309 14.78945532951724"}}, "geometry": {"type": "Point", "coordinates": [44.82218471471029, -29.610502075171148]}}, {"type": "Feature", "properties": {"norad_id": 33320, "name": "HUANJING 1A (HJ-1A)", "group": "resource", "lat": -75.98401953102365, "lon": 126.1948173589777, "alt_km": 633.6656444271166, "timestamp": "2025-12-16T15:45:50.670273+00:00", "meta": {"OBJECT_NAME": "HUANJING 1A (HJ-1A)", "OBJECT_ID": "2008-041A", "EPOCH": "2025-12-16T00:01:59.060928", "MEAN_MOTION": 14.83407664, "ECCENTRICITY": 0.00199387, "INCLINATION": 97.6541, "RA_OF_ASC_NODE": 338.164, "ARG_OF_PERICENTER": 24.1736, "MEAN_ANOMALY": 336.041, "EPHEMERIS_TYPE": 0, "CLASSIFICATION_TYPE": "U", "NORAD_CAT_ID": 33320, "ELEMENT_SET_NO": 999, "REV_AT_EPOCH": 93124, "BSTAR": 0.00022448809, "MEAN_MOTION_DOT": 1.797e-05, "MEAN_MOTION_DDOT": 0}, "tle": {"line1": "1 33320U 08041A   25350.00137802  .00001797  00000+0  22449-3 0  9997", "line2": "2 33320  97.6541 338.1640 0019938  24.1736 336.0410 14.83407664931242"}}, "geometry": {"type": "Point", "coordinates": [126.1948173589777, -75.98401953102365]}}, {"type": "Feature", "properties": {"norad_id": 33321, "name": "HUANJING 1B (HJ-1B)", "group": "resource", "lat": 66.98775845929147, "lon": -179.097307778878, "alt_km": 596.0985373198237, "timestamp": "2025-12-16T15:45:50.670304+00:00", "meta": {"OBJECT_NAME": "HUANJING 1B (HJ-1B)", "OBJECT_ID": "2008-041B", "EPOCH": "2025-12-15T23:04:12.243648", "MEAN_MOTION": 14.82832926, "ECCENTRICITY": 0.00381785, "INCLINATION": 97.6401, "RA_OF_ASC_NODE": 341.8142, "ARG_OF_PERICENTER": 65.5438, "MEAN_ANOMALY": 294.9752, "EPHEMERIS_TYPE": 0, "CLASSIFICATION_TYPE": "U", "NORAD_CAT_ID": 33321, "ELEMENT_SET_NO": 999, "REV_AT_EPOCH": 93125, "BSTAR": 0.00018464245, "MEAN_MOTION_DOT": 1.462e-05, "MEAN_MOTION_DDOT": 0}, "tle": {"line1": "1 33321U 08041B   25349.96125282  .00001462  00000+0  18464-3 0  9991", "line2": "2 33321  97.6401 341.8142 0038178  65.5438 294.9752 14.82832926931255"}}, "geometry": {"type": "Point", "coordinates": [-179.097307778878, 66.98775845929147]}}, {"type": "Feature", "properties": {"norad_id": 33331, "name": "GEOEYE 1", "group": "resource", "lat": -23.274863076369463, "lon": -121.63484093102156, "alt_km": 682.6969549555715, "timestamp": "2025-12-16T15:45:50.670326+00:00", "meta": {"OBJECT_NAME": "GEOEYE 1", "OBJECT_ID": "2008-042A", "EPOCH": "2025-12-15T22:26:33.450432", "MEAN_MOTION": 14.64704604, "ECCENTRICITY": 0.00027433, "INCLINATION": 98.1251, "RA_OF_ASC_NODE": 61.1758, "ARG_OF_PERICENTER": 271.6646, "MEAN_ANOMALY": 88.4243, "EPHEMERIS_TYPE": 0, "CLASSIFICATION_TYPE": "U", "NORAD_CAT_ID": 33331, "ELEMENT_SET_NO": 999, "REV_AT_EPOCH": 92332, "BSTAR": 0.00011233617, "MEAN_MOTION_DOT": 5.5e-06, "MEAN_MOTION_DDOT": 0}, "tle": {"line1": "1 33331U 08042A   25349.93510938  .00000550  00000+0  11234-3 0  9991", "line2": "2 33331  98.1251  61.1758 0002743 271.6646  88.4243 14.64704604923321"}}, "geometry": {"type": "Point", "coordinates": [-121.63484093102156, -23.274863076369463]}}, {"type": "Feature", "properties": {"norad_id": 33396, "name": "THEOS", "group": "resource", "lat": 28.23454470296363, "lon": -126.71539707282383, "alt_km": 823.2630713083854, "timestamp": "2025-12-16T15:45:50.670345+00:00", "meta": {"OBJECT_NAME": "THEOS", "OBJECT_ID": "2008-049A", "EPOCH": "2025-12-15T23:50:06.541728", "MEAN_MOTION": 14.20097574, "ECCENTRICITY": 0.00011547, "INCLINATION": 98.5869, "RA_OF_ASC_NODE": 47.9867, "ARG_OF_PERICENTER": 96.4492, "MEAN_ANOMALY": 263.6817, "EPHEMERIS_TYPE": 0, "CLASSIFICATION_TYPE": "U", "NORAD_CAT_ID": 33396, "ELEMENT_SET_NO": 999, "REV_AT_EPOCH": 89196, "BSTAR": 6.8278479e-05, "MEAN_MOTION_DOT": 1.03e-06, "MEAN_MOTION_DDOT": 0}, "tle": {"line1": "1 33396U 08049A   25349.99313127  .00000103  00000+0  68278-4 0  9991", "line2": "2 33396  98.5869  47.9867 0001154  96.4492 263.6817 14.20097574891962"}}, "geometry": {"type": "Point", "coordinates": [-126.71539707282383, 28.23454470296363]}}, {"type": "Feature", "properties": {"norad_id": 33412, "name": "COSMO-SKYMED 3", "group": "resource", "lat": -0.842819718500179, "lon": -158.7697208754845, "alt_km": 564.112986252625, "timestamp": "2025-12-16T15:45:50.670369+00:00", "meta": {"OBJECT_NAME": "COSMO-SKYMED 3", "OBJECT_ID": "2008-054A", "EPOCH": "2025-12-15T23:48:54.637056", "MEAN_MOTION": 15.05389461, "ECCENTRICITY": 0.00163124, "INCLINATION": 97.8478, "RA_OF_ASC_NODE": 200.4384, "ARG_OF_PERICENTER": 161.9258, "MEAN_ANOMALY": 198.2551, "EPHEMERIS_TYPE": 0, "CLASSIFICATION_TYPE": "U", "NORAD_CAT_ID": 33412, "ELEMENT_SET_NO": 999, "REV_AT_EPOCH": 92936, "BSTAR": 0.00020606347, "MEAN_MOTION_DOT": 2.897e-05, "MEAN_MOTION_DDOT": 0}, "tle": {"line1": "1 33412U 08054A   25349.99229904  .00002897  00000+0  20606-3 0  9999", "line2": "2 33412  97.8478 200.4384 0016312 161.9258 198.2551 15.05389461929366"}}, "geometry": {"type": "Point", "coordinates": [-158.7697208754845, -0.842819718500179]}}, {"type": "Feature", "properties": {"norad_id": 33446, "name": "YAOGAN-4", "group": "resource", "lat": 20.99034259490392, "lon": -82.34344433187358, "alt_km": 617.7810359294799, "timestamp": "2025-12-16T15:45:50.670387+00:00", "meta": {"OBJECT_NAME": "YAOGAN-4", "OBJECT_ID": "2008-061A", "EPOCH": "2025-12-15T18:36:47.735136", "MEAN_MOTION": 14.82692757, "ECCENTRICITY": 0.00133523, "INCLINATION": 97.9181, "RA_OF_ASC_NODE": 279.845, "ARG_OF_PERICENTER": 312.7719, "MEAN_ANOMALY": 47.237, "EPHEMERIS_TYPE": 0, "CLASSIFICATION_TYPE": "U", "NORAD_CAT_ID": 33446, "ELEMENT_SET_NO": 999, "REV_AT_EPOCH": 91848, "BSTAR": 0.00015255077, "MEAN_MOTION_DOT": 1.178e-05, "MEAN_MOTION_DDOT": 0}, "tle": {"line1": "1 33446U 08061A   25349.77555249  .00001178  00000+0  15255-3 0  9999", "line2": "2 33446  97.9181 279.8450 0013352 312.7719  47.2370 14.82692757918480"}}, "geometry": {"type": "Point", "coordinates": [-82.34344433187358, 20.99034259490392]}}]}